{
    "links": {
        "self": "http://www.neowsapp.com/rest/v1/neo/3831896?api_key=iIulBulltgU6a56xZRHN4H3l9WmuAYTsLGpBGhQ2"
    },
    "id": "3831896",
    "neo_reference_id": "3831896",
    "name": "(2018 UL1)",
    "designation": "2018 UL1",
    "nasa_jpl_url": "http://ssd.jpl.nasa.gov/sbdb.cgi?sstr=3831896",
    "absolute_magnitude_h": 25.0,
    "estimated_diameter": {
        "kilometers": {
            "estimated_diameter_min": 0.02658,
            "estimated_diameter_max": 0.0594346868
        },
        "meters": {
            "estimated_diameter_min": 26.58,
            "estimated_diameter_max": 59.4346868419
        },
        "miles": {
            "estimated_diameter_min": 0.0165160412,
            "estimated_diameter_max": 0.0369309908
        },
        "feet": {
            "estimated_diameter_min": 87.2047272,
            "estimated_diameter_max": 194.9956979785
        }
    },
    "is_potentially_hazardous_asteroid": false,
    "close_approach_data": [
        {
            "close_approach_date": "2018-05-18",
            "close_approach_date_full": "2018-May-18 15:23",
            "epoch_date_close_approach": 1526656980000,
            "relative_velocity": {
                "kilometers_per_second": "13.2338351962",
                "kilometers_per_hour": "47641.8067063387",
                "miles_per_hour": "29602.7659503914"
            },
            "miss_distance": {
                "astronomical": "0.4190838827",
                "lunar": "163.0236303703",
                "kilometers": "62694056.203249849",
                "miles": "38956280.0979879562"
            },
            "orbiting_body": "Earth"
        },
        {
            "close_approach_date": "2018-10-16",
            "close_approach_date_full": "2018-Oct-16 01:22",
            "epoch_date_close_approach": 1539652920000,
            "relative_velocity": {
                "kilometers_per_second": "14.0011292818",
                "kilometers_per_hour": "50404.0654144044",
                "miles_per_hour": "31319.1260904114"
            },
            "miss_distance": {
                "astronomical": "0.0505455486",
                "lunar": "19.6622184054",
                "kilometers": "7561506.408541482",
                "miles": "4698502.2098251716"
            },
            "orbiting_body": "Earth"
        }
    ],
    "orbital_data": {
        "orbit_id": "1",
        "orbit_determination_date": "2018-10-20 16:12:04",
        "first_observation_date": "2018-10-18",
        "last_observation_date": "2018-10-20",
        "data_arc_in_days": 2,
        "observations_used": 26,
        "orbit_uncertainty": "8",
        "minimum_orbit_intersection": ".0478457",
        "jupiter_tisserand_invariant": "4.990",
        "epoch_osculation": "2458410.5",
        "eccentricity": ".1986395514562506",
        "semi_major_axis": "1.263212354068501",
        "inclination": "25.57683312212212",
        "ascending_node_longitude": "204.3880975511382",
        "orbital_period": "518.5766685918885",
        "perihelion_distance": "1.01228841866234",
        "perihelion_argument": "143.6720797228056",
        "aphelion_distance": "1.514136289474663",
        "perihelion_time": "2458373.690976502581",
        "mean_anomaly": "25.55311347703411",
        "mean_motion": ".6942078612551584",
        "equinox": "J2000",
        "orbit_class": {
            "orbit_class_type": "APO",
            "orbit_class_description": "Near-Earth asteroid orbits which cross the Earth’s orbit similar to that of 1862 Apollo",
            "orbit_class_range": "a (semi-major axis) > 1.0 AU; q (perihelion) < 1.017 AU"
        }
    },
    "is_sentry_object": false
}